{
  "type": "FeatureCollection",
  "features": [
    {
      "type": "Feature",
      "properties": {
        "norad_id": 32128,
        "name": "FENGYUN 1C DEB",
        "group": "fengyun-1c-debris",
        "lat": 69.24264740578822,
        "lon": -113.28585529478346,
        "alt_km": 891.0758368277693,
        "timestamp": "2025-12-21T20:41:08.245618+00:00",
        "meta_object_name": "FENGYUN 1C DEB",
        "meta_object_id": "1999-025CRW",
        "meta_epoch": "2025-12-20T09:41:23.072928",
        "meta_mean_motion": 13.94238762,
        "meta_eccentricity": 0.03974232,
        "meta_inclination": 99.0297,
        "meta_ra_of_asc_node": 40.4784,
        "meta_arg_of_pericenter": 201.8481,
        "meta_mean_anomaly": 156.5315,
        "meta_ephemeris_type": 0,
        "meta_classification_type": "U",
        "meta_norad_cat_id": 32128,
        "meta_element_set_no": 999,
        "meta_rev_at_epoch": 63092,
        "meta_bstar": 0.00046296594,
        "meta_mean_motion_dot": 1.138e-05,
        "meta_mean_motion_ddot": 0,
        "tle_line1": "1 32128U 99025CRW 25354.40373927  .00001138  00000+0  46297-3 0  9998",
        "tle_line2": "2 32128  99.0297  40.4784 0397423 201.8481 156.5315 13.94238762630924"
      },
      "geometry": {
        "type": "Point",
        "coordinates": [
          -113.28585529478346,
          69.24264740578822
        ]
      }
    },
    {
      "type": "Feature",
      "properties": {
        "norad_id": 32129,
        "name": "FENGYUN 1C DEB",
        "group": "fengyun-1c-debris",
        "lat": 50.87650096124134,
        "lon": 103.29730935085499,
        "alt_km": 757.1057766502518,
        "timestamp": "2025-12-21T20:41:08.245629+00:00",
        "meta_object_name": "FENGYUN 1C DEB",
        "meta_object_id": "1999-025CRX",
        "meta_epoch": "2025-12-20T21:30:21.508992",
        "meta_mean_motion": 14.28569104,
        "meta_eccentricity": 0.0067404,
        "meta_inclination": 99.0578,
        "meta_ra_of_asc_node": 113.6057,
        "meta_arg_of_pericenter": 10.1346,
        "meta_mean_anomaly": 116.8908,
        "meta_ephemeris_type": 0,
        "meta_classification_type": "U",
        "meta_norad_cat_id": 32129,
        "meta_element_set_no": 999,
        "meta_rev_at_epoch": 94343,
        "meta_bstar": 0.0012789,
        "meta_mean_motion_dot": 3.241e-05,
        "meta_mean_motion_ddot": 0,
        "tle_line1": "1 32129U 99025CRX 25354.89608228  .00003241  00000+0  12789-2 0  9992",
        "tle_line2": "2 32129  99.0578 113.6057 0067404  10.1346 116.8908 14.28569104943432"
      },
      "geometry": {
        "type": "Point",
        "coordinates": [
          103.29730935085499,
          50.87650096124134
        ]
      }
    },
    {
      "type": "Feature",
      "properties": {
        "norad_id": 32130,
        "name": "FENGYUN 1C DEB",
        "group": "fengyun-1c-debris",
        "lat": -31.790196684585744,
        "lon": -22.87872564370337,
        "alt_km": 773.1105637848632,
        "timestamp": "2025-12-21T20:41:08.245638+00:00",
        "meta_object_name": "FENGYUN 1C DEB",
        "meta_object_id": "1999-025CRY",
        "meta_epoch": "2025-12-20T06:56:40.035264",
        "meta_mean_motion": 14.37566175,
        "meta_eccentricity": 0.00823379,
        "meta_inclination": 98.9035,
        "meta_ra_of_asc_node": 161.069,
        "meta_arg_of_pericenter": 307.7584,
        "meta_mean_anomaly": 51.6162,
        "meta_ephemeris_type": 0,
        "meta_classification_type": "U",
        "meta_norad_cat_id": 32130,
        "meta_element_set_no": 999,
        "meta_rev_at_epoch": 96343,
        "meta_bstar": 0.00032075565,
        "meta_mean_motion_dot": 9.51e-06,
        "meta_mean_motion_ddot": 0,
        "tle_line1": "1 32130U 99025CRY 25354.28935226  .00000951  00000+0  32076-3 0  9995",
        "tle_line2": "2 32130  98.9035 161.0690 0082337 307.7584  51.6162 14.37566175963436"
      },
      "geometry": {
        "type": "Point",
        "coordinates": [
          -22.87872564370337,
          -31.790196684585744
        ]
      }
    },
    {
      "type": "Feature",
      "properties": {
        "norad_id": 32133,
        "name": "FENGYUN 1C DEB",
        "group": "fengyun-1c-debris",
        "lat": -51.26122701140859,
        "lon": 7.2666108085597,
        "alt_km": 854.5409793436647,
        "timestamp": "2025-12-21T20:41:08.245646+00:00",
        "meta_object_name": "FENGYUN 1C DEB",
        "meta_object_id": "1999-025CSB",
        "meta_epoch": "2025-12-19T23:12:33.902784",
        "meta_mean_motion": 14.18076922,
        "meta_eccentricity": 0.00364355,
        "meta_inclination": 98.4317,
        "meta_ra_of_asc_node": 354.8123,
        "meta_arg_of_pericenter": 80.5829,
        "meta_mean_anomaly": 279.9464,
        "meta_ephemeris_type": 0,
        "meta_classification_type": "U",
        "meta_norad_cat_id": 32133,
        "meta_element_set_no": 999,
        "meta_rev_at_epoch": 95077,
        "meta_bstar": 0.00014982092,
        "meta_mean_motion_dot": 2.68e-06,
        "meta_mean_motion_ddot": 0,
        "tle_line1": "1 32133U 99025CSB 25353.96705906  .00000268  00000+0  14982-3 0  9999",
        "tle_line2": "2 32133  98.4317 354.8123 0036435  80.5829 279.9464 14.18076922950774"
      },
      "geometry": {
        "type": "Point",
        "coordinates": [
          7.2666108085597,
          -51.26122701140859
        ]
      }
    },
    {
      "type": "Feature",
      "properties": {
        "norad_id": 32134,
        "name": "FENGYUN 1C DEB",
        "group": "fengyun-1c-debris",
        "lat": -79.43970490221376,
        "lon": 53.041188298682776,
        "alt_km": 680.6969390307204,
        "timestamp": "2025-12-21T20:41:08.245656+00:00",
        "meta_object_name": "FENGYUN 1C DEB",
        "meta_object_id": "1999-025CSC",
        "meta_epoch": "2025-12-20T18:54:49.283424",
        "meta_mean_motion": 14.21581722,
        "meta_eccentricity": 0.02590569,
        "meta_inclination": 98.5942,
        "meta_ra_of_asc_node": 357.7817,
        "meta_arg_of_pericenter": 240.187,
        "meta_mean_anomaly": 301.7101,
        "meta_ephemeris_type": 0,
        "meta_classification_type": "U",
        "meta_norad_cat_id": 32134,
        "meta_element_set_no": 999,
        "meta_rev_at_epoch": 95261,
        "meta_bstar": 0.00035063748,
        "meta_mean_motion_dot": 1.03e-05,
        "meta_mean_motion_ddot": 0,
        "tle_line1": "1 32134U 99025CSC 25354.78807041  .00001030  00000+0  35064-3 0  9996",
        "tle_line2": "2 32134  98.5942 357.7817 0259056 240.1870 301.7101 14.21581722952618"
      },
      "geometry": {
        "type": "Point",
        "coordinates": [
          53.041188298682776,
          -79.43970490221376
        ]
      }
    },
    {
      "type": "Feature",
      "properties": {
        "norad_id": 32137,
        "name": "FENGYUN 1C DEB",
        "group": "fengyun-1c-debris",
        "lat": -28.831866526229483,
        "lon": -61.09379856421416,
        "alt_km": 749.9633252260246,
        "timestamp": "2025-12-21T20:41:08.245665+00:00",
        "meta_object_name": "FENGYUN 1C DEB",
        "meta_object_id": "1999-025CSF",
        "meta_epoch": "2025-12-20T01:35:34.653984",
        "meta_mean_motion": 14.81328806,
        "meta_eccentricity": 0.01868875,
        "meta_inclination": 98.4422,
        "meta_ra_of_asc_node": 121.704,
        "meta_arg_of_pericenter": 10.6398,
        "meta_mean_anomaly": 349.8682,
        "meta_ephemeris_type": 0,
        "meta_classification_type": "U",
        "meta_norad_cat_id": 32137,
        "meta_element_set_no": 999,
        "meta_rev_at_epoch": 66839,
        "meta_bstar": 0.00036203143,
        "meta_mean_motion_dot": 3.753e-05,
        "meta_mean_motion_ddot": 0,
        "tle_line1": "1 32137U 99025CSF 25354.06637331  .00003753  00000+0  36203-3 0  9993",
        "tle_line2": "2 32137  98.4422 121.7040 0186887  10.6398 349.8682 14.81328806668390"
      },
      "geometry": {
        "type": "Point",
        "coordinates": [
          -61.09379856421416,
          -28.831866526229483
        ]
      }
    },
    {
      "type": "Feature",
      "properties": {
        "norad_id": 32143,
        "name": "FENGYUN 1C DEB",
        "group": "fengyun-1c-debris",
        "lat": -58.912624279285865,
        "lon": 137.97647149251588,
        "alt_km": 908.8218968262581,
        "timestamp": "2025-12-21T20:41:08.245676+00:00",
        "meta_object_name": "FENGYUN 1C DEB",
        "meta_object_id": "1999-025CSM",
        "meta_epoch": "2025-12-17T03:47:36.858336",
        "meta_mean_motion": 14.17974045,
        "meta_eccentricity": 0.01045676,
        "meta_inclination": 98.5967,
        "meta_ra_of_asc_node": 327.9519,
        "meta_arg_of_pericenter": 96.0348,
        "meta_mean_anomaly": 265.2755,
        "meta_ephemeris_type": 0,
        "meta_classification_type": "U",
        "meta_norad_cat_id": 32143,
        "meta_element_set_no": 999,
        "meta_rev_at_epoch": 95996,
        "meta_bstar": 0.000152935,
        "meta_mean_motion_dot": 2.89e-06,
        "meta_mean_motion_ddot": 0,
        "tle_line1": "1 32143U 99025CSM 25351.15806549  .00000289  00000+0  15294-3 0  9994",
        "tle_line2": "2 32143  98.5967 327.9519 0104567  96.0348 265.2755 14.17974045959960"
      },
      "geometry": {
        "type": "Point",
        "coordinates": [
          137.97647149251588,
          -58.912624279285865
        ]
      }
    }
  ]
}